*******************************************************************************
JPL/HORIZONS                3786 Yamada (1988 AE)          2023-Sep-04 11:25:31
Rec #:    3786 (+COV) Soln.date: 2023-Aug-23_13:34:14   # obs: 7584 (1931-2023)
 
IAU76/J2000 helio. ecliptic osc. elements (au, days, deg., period=Julian yrs):
 
  EPOCH=  2457700.5 ! 2016-Nov-08.00 (TDB)         Residual RMS= .25948
   EC= .08124055452041279  QR= 2.342158907878874   TP= 2458200.1054086559
   OM= 261.7701217829691   W=  356.8317536566296   IN= 14.31781503784861
   A= 2.549262398773251    MA= 239.0211658811927   ADIST= 2.756365889667627
   PER= 4.07033            N= .242148768           ANGMOM= .027374789
   DAN= 2.34243            DDN= 2.75599            L= 258.7000934
   B= -.7831334            MOID= 1.32676005        TP= 2018-Mar-22.6054086559
 
Asteroid physical parameters (km, seconds, rotational period in hours):
   GM= n.a.                RAD= 6.258              ROTPER= 4.034
   H= 11.41                G= .150                 B-V= n.a.
                           ALBEDO= .409            STYP= n.a.

ASTEROID comments: 
1: soln ref.= JPL#58, OCC=0
2: source=ORB
*******************************************************************************


*******************************************************************************
Ephemeris / API_USER Mon Sep  4 11:25:31 2023 Pasadena, USA      / Horizons
*******************************************************************************
Target body name: 3786 Yamada (1988 AE)           {source: JPL#58}
Center body name: Solar System Barycenter (0)     {source: DE441}
Center-site name: BODY CENTER
*******************************************************************************
Start time      : A.D. 2023-Aug-12 00:00:00.0000 TDB
Stop  time      : A.D. 2023-Aug-13 00:00:00.0000 TDB
Step-size       : 2880 minutes
*******************************************************************************
Center geodetic : 0.0, 0.0, 0.0                   {E-lon(deg),Lat(deg),Alt(km)}
Center cylindric: 0.0, 0.0, 0.0                   {E-lon(deg),Dxy(km),Dz(km)}
Center radii    : (undefined)
Small perturbers: Yes                             {source: SB441-N16}
Output units    : KM-S
Calendar mode   : Mixed Julian/Gregorian
Output type     : GEOMETRIC cartesian states
Output format   : 2 (position and velocity)
Reference frame : Ecliptic of J2000.0
*******************************************************************************
Initial IAU76/J2000 heliocentric ecliptic osculating elements (au, days, deg.):
  EPOCH=  2457700.5 ! 2016-Nov-08.00 (TDB)         Residual RMS= .25948        
   EC= .08124055452041279  QR= 2.342158907878874   TP= 2458200.1054086559      
   OM= 261.7701217829691   W=  356.8317536566296   IN= 14.31781503784861       
  Equivalent ICRF heliocentric cartesian coordinates (au, au/d):
   X=-1.655554128397852E+00  Y= 2.060879231781225E+00  Z= 3.567519517376419E-01
  VX=-7.218326623669674E-03 VY=-5.946723319780666E-03 VZ=-4.280494121307268E-03
Asteroid physical parameters (km, seconds, rotational period in hours):        
   GM= n.a.                RAD= 6.258              ROTPER= 4.034               
   H= 11.41                G= .150                 B-V= n.a.                   
                           ALBEDO= .409            STYP= n.a.                  
*******************************************************************************
JDTDB
   X     Y     Z
   VX    VY    VZ
*******************************************************************************
$$SOE
2460168.500000000 = A.D. 2023-Aug-12 00:00:00.0000 TDB 
 X = 3.539078064965816E+08 Y = 1.554827619202080E+08 Z = 8.400095035490331E+07
 VX=-5.539647081734029E+00 VY= 1.690651814295321E+01 VZ=-2.027954432060640E+00
$$EOE
*******************************************************************************
 
TIME

  Barycentric Dynamical Time ("TDB" or T_eph) output was requested. This
continuous coordinate time is equivalent to the relativistic proper time
of a clock at rest in a reference frame co-moving with the solar system
barycenter but outside the system's gravity well. It is the independent
variable in the solar system relativistic equations of motion.

  TDB runs at a uniform rate of one SI second per second and is independent
of irregularities in Earth's rotation.
 
CALENDAR SYSTEM

  Mixed calendar mode was active such that calendar dates after AD 1582-Oct-15
(if any) are in the modern Gregorian system. Dates prior to 1582-Oct-5 (if any)
are in the Julian calendar system, which is automatically extended for dates
prior to its adoption on 45-Jan-1 BC.  The Julian calendar is useful for
matching historical dates. The Gregorian calendar more accurately corresponds
to the Earth's orbital motion and seasons. A "Gregorian-only" calendar mode is
available if such physical events are the primary interest.

REFERENCE FRAME AND COORDINATES

  Ecliptic at the standard reference epoch

    Reference epoch: J2000.0
    X-Y plane: adopted Earth orbital plane at the reference epoch
               Note: IAU76 obliquity of 84381.448 arcseconds wrt ICRF X-Y plane
    X-axis   : ICRF
    Z-axis   : perpendicular to the X-Y plane in the directional (+ or -) sense
               of Earth's north pole at the reference epoch.

  Symbol meaning:

    JDTDB    Julian Day Number, Barycentric Dynamical Time
      X      X-component of position vector (km)
      Y      Y-component of position vector (km)
      Z      Z-component of position vector (km)
      VX     X-component of velocity vector (km/sec)                           
      VY     Y-component of velocity vector (km/sec)                           
      VZ     Z-component of velocity vector (km/sec)                           

ABERRATIONS AND CORRECTIONS

 Geometric state vectors have NO corrections or aberrations applied.

Computations by ...

    Solar System Dynamics Group, Horizons On-Line Ephemeris System
    4800 Oak Grove Drive, Jet Propulsion Laboratory
    Pasadena, CA  91109   USA

    General site: https://ssd.jpl.nasa.gov/
    Mailing list: https://ssd.jpl.nasa.gov/email_list.html
    System news : https://ssd.jpl.nasa.gov/horizons/news.html
    User Guide  : https://ssd.jpl.nasa.gov/horizons/manual.html
    Connect     : browser        https://ssd.jpl.nasa.gov/horizons/app.html#/x
                  API            https://ssd-api.jpl.nasa.gov/doc/horizons.html
                  command-line   telnet ssd.jpl.nasa.gov 6775
                  e-mail/batch   https://ssd.jpl.nasa.gov/ftp/ssd/hrzn_batch.txt
                  scripts        https://ssd.jpl.nasa.gov/ftp/ssd/SCRIPTS
    Author      : Jon.D.Giorgini@jpl.nasa.gov
*******************************************************************************
